<?xml version="1.0" encoding="UTF-8"?>
<ndm xmlns:xsi="http://www.w3.org/2001/XMLSchema-instance" xsi:noNamespaceSchemaLocation="https://sanaregistry.org/r/ndmxml_unqualified/ndmxml-2.0.0-master-2.0.xsd">
<omm id="CCSDS_OMM_VERS" version="2.0">
<header><CREATION_DATE/><ORIGINATOR/></header><body><segment><metadata><OBJECT_NAME>ORBCOMM FM24</OBJECT_NAME><OBJECT_ID>1998-053D</OBJECT_ID><CENTER_NAME>EARTH</CENTER_NAME><REF_FRAME>TEME</REF_FRAME><TIME_SYSTEM>UTC</TIME_SYSTEM><MEAN_ELEMENT_THEORY>SGP4</MEAN_ELEMENT_THEORY></metadata><data><meanElements><EPOCH>2024-12-23T13:47:56.577696</EPOCH><MEAN_MOTION>14.37217387</MEAN_MOTION><ECCENTRICITY>.0001492</ECCENTRICITY><INCLINATION>45.0090</INCLINATION><RA_OF_ASC_NODE>21.2526</RA_OF_ASC_NODE><ARG_OF_PERICENTER>325.4317</ARG_OF_PERICENTER><MEAN_ANOMALY>34.6434</MEAN_ANOMALY></meanElements><tleParameters><EPHEMERIS_TYPE>0</EPHEMERIS_TYPE><CLASSIFICATION_TYPE>U</CLASSIFICATION_TYPE><NORAD_CAT_ID>25478</NORAD_CAT_ID><ELEMENT_SET_NO>999</ELEMENT_SET_NO><REV_AT_EPOCH>37245</REV_AT_EPOCH><BSTAR>.87882E-3</BSTAR><MEAN_MOTION_DOT>.2499E-4</MEAN_MOTION_DOT><MEAN_MOTION_DDOT>0</MEAN_MOTION_DDOT></tleParameters></data></segment></body></omm>
<omm id="CCSDS_OMM_VERS" version="2.0">
<header><CREATION_DATE/><ORIGINATOR/></header><body><segment><metadata><OBJECT_NAME>ORBCOMM FM25</OBJECT_NAME><OBJECT_ID>1998-053E</OBJECT_ID><CENTER_NAME>EARTH</CENTER_NAME><REF_FRAME>TEME</REF_FRAME><TIME_SYSTEM>UTC</TIME_SYSTEM><MEAN_ELEMENT_THEORY>SGP4</MEAN_ELEMENT_THEORY></metadata><data><meanElements><EPOCH>2024-12-23T13:03:01.191456</EPOCH><MEAN_MOTION>14.37198640</MEAN_MOTION><ECCENTRICITY>.0001919</ECCENTRICITY><INCLINATION>45.0082</INCLINATION><RA_OF_ASC_NODE>19.6549</RA_OF_ASC_NODE><ARG_OF_PERICENTER>58.4223</ARG_OF_PERICENTER><MEAN_ANOMALY>301.6812</MEAN_ANOMALY></meanElements><tleParameters><EPHEMERIS_TYPE>0</EPHEMERIS_TYPE><CLASSIFICATION_TYPE>U</CLASSIFICATION_TYPE><NORAD_CAT_ID>25479</NORAD_CAT_ID><ELEMENT_SET_NO>999</ELEMENT_SET_NO><REV_AT_EPOCH>37246</REV_AT_EPOCH><BSTAR>.99352E-3</BSTAR><MEAN_MOTION_DOT>.2843E-4</MEAN_MOTION_DOT><MEAN_MOTION_DDOT>0</MEAN_MOTION_DDOT></tleParameters></data></segment></body></omm>
<omm id="CCSDS_OMM_VERS" version="2.0">
<header><CREATION_DATE/><ORIGINATOR/></header><body><segment><metadata><OBJECT_NAME>ORBCOMM FM26</OBJECT_NAME><OBJECT_ID>1998-053F</OBJECT_ID><CENTER_NAME>EARTH</CENTER_NAME><REF_FRAME>TEME</REF_FRAME><TIME_SYSTEM>UTC</TIME_SYSTEM><MEAN_ELEMENT_THEORY>SGP4</MEAN_ELEMENT_THEORY></metadata><data><meanElements><EPOCH>2024-12-24T01:45:04.158720</EPOCH><MEAN_MOTION>14.36400746</MEAN_MOTION><ECCENTRICITY>.0003574</ECCENTRICITY><INCLINATION>45.0078</INCLINATION><RA_OF_ASC_NODE>12.4226</RA_OF_ASC_NODE><ARG_OF_PERICENTER>108.5288</ARG_OF_PERICENTER><MEAN_ANOMALY>251.5948</MEAN_ANOMALY></meanElements><tleParameters><EPHEMERIS_TYPE>0</EPHEMERIS_TYPE><CLASSIFICATION_TYPE>U</CLASSIFICATION_TYPE><NORAD_CAT_ID>25480</NORAD_CAT_ID><ELEMENT_SET_NO>999</ELEMENT_SET_NO><REV_AT_EPOCH>37256</REV_AT_EPOCH><BSTAR>.88088E-3</BSTAR><MEAN_MOTION_DOT>.2463E-4</MEAN_MOTION_DOT><MEAN_MOTION_DDOT>0</MEAN_MOTION_DDOT></tleParameters></data></segment></body></omm>
<omm id="CCSDS_OMM_VERS" version="2.0">
<header><CREATION_DATE/><ORIGINATOR/></header><body><segment><metadata><OBJECT_NAME>ORBCOMM FM27</OBJECT_NAME><OBJECT_ID>1998-053G</OBJECT_ID><CENTER_NAME>EARTH</CENTER_NAME><REF_FRAME>TEME</REF_FRAME><TIME_SYSTEM>UTC</TIME_SYSTEM><MEAN_ELEMENT_THEORY>SGP4</MEAN_ELEMENT_THEORY></metadata><data><meanElements><EPOCH>2024-12-23T12:48:02.619360</EPOCH><MEAN_MOTION>14.37201424</MEAN_MOTION><ECCENTRICITY>.0002297</ECCENTRICITY><INCLINATION>45.0065</INCLINATION><RA_OF_ASC_NODE>19.9532</RA_OF_ASC_NODE><ARG_OF_PERICENTER>284.4551</ARG_OF_PERICENTER><MEAN_ANOMALY>75.6041</MEAN_ANOMALY></meanElements><tleParameters><EPHEMERIS_TYPE>0</EPHEMERIS_TYPE><CLASSIFICATION_TYPE>U</CLASSIFICATION_TYPE><NORAD_CAT_ID>25481</NORAD_CAT_ID><ELEMENT_SET_NO>999</ELEMENT_SET_NO><REV_AT_EPOCH>37239</REV_AT_EPOCH><BSTAR>.98367E-3</BSTAR><MEAN_MOTION_DOT>.2814E-4</MEAN_MOTION_DOT><MEAN_MOTION_DDOT>0</MEAN_MOTION_DDOT></tleParameters></data></segment></body></omm>
<omm id="CCSDS_OMM_VERS" version="2.0">
<header><CREATION_DATE/><ORIGINATOR/></header><body><segment><metadata><OBJECT_NAME>ORBCOMM FM28</OBJECT_NAME><OBJECT_ID>1998-053H</OBJECT_ID><CENTER_NAME>EARTH</CENTER_NAME><REF_FRAME>TEME</REF_FRAME><TIME_SYSTEM>UTC</TIME_SYSTEM><MEAN_ELEMENT_THEORY>SGP4</MEAN_ELEMENT_THEORY></metadata><data><meanElements><EPOCH>2024-12-24T02:04:00.846624</EPOCH><MEAN_MOTION>14.37496907</MEAN_MOTION><ECCENTRICITY>.000223</ECCENTRICITY><INCLINATION>45.0063</INCLINATION><RA_OF_ASC_NODE>315.1505</RA_OF_ASC_NODE><ARG_OF_PERICENTER>136.1050</ARG_OF_PERICENTER><MEAN_ANOMALY>223.9976</MEAN_ANOMALY></meanElements><tleParameters><EPHEMERIS_TYPE>0</EPHEMERIS_TYPE><CLASSIFICATION_TYPE>U</CLASSIFICATION_TYPE><NORAD_CAT_ID>25482</NORAD_CAT_ID><ELEMENT_SET_NO>999</ELEMENT_SET_NO><REV_AT_EPOCH>37332</REV_AT_EPOCH><BSTAR>.10173E-2</BSTAR><MEAN_MOTION_DOT>.2933E-4</MEAN_MOTION_DOT><MEAN_MOTION_DDOT>0</MEAN_MOTION_DDOT></tleParameters></data></segment></body></omm>
<omm id="CCSDS_OMM_VERS" version="2.0">
<header><CREATION_DATE/><ORIGINATOR/></header><body><segment><metadata><OBJECT_NAME>ORBCOMM FM30</OBJECT_NAME><OBJECT_ID>1999-065A</OBJECT_ID><CENTER_NAME>EARTH</CENTER_NAME><REF_FRAME>TEME</REF_FRAME><TIME_SYSTEM>UTC</TIME_SYSTEM><MEAN_ELEMENT_THEORY>SGP4</MEAN_ELEMENT_THEORY></metadata><data><meanElements><EPOCH>2024-12-23T12:36:58.424544</EPOCH><MEAN_MOTION>14.36545565</MEAN_MOTION><ECCENTRICITY>.0006324</ECCENTRICITY><INCLINATION>45.0300</INCLINATION><RA_OF_ASC_NODE>200.7552</RA_OF_ASC_NODE><ARG_OF_PERICENTER>202.4016</ARG_OF_PERICENTER><MEAN_ANOMALY>157.6556</MEAN_ANOMALY></meanElements><tleParameters><EPHEMERIS_TYPE>0</EPHEMERIS_TYPE><CLASSIFICATION_TYPE>U</CLASSIFICATION_TYPE><NORAD_CAT_ID>25980</NORAD_CAT_ID><ELEMENT_SET_NO>999</ELEMENT_SET_NO><REV_AT_EPOCH>30918</REV_AT_EPOCH><BSTAR>.59215E-3</BSTAR><MEAN_MOTION_DOT>.1614E-4</MEAN_MOTION_DOT><MEAN_MOTION_DDOT>0</MEAN_MOTION_DDOT></tleParameters></data></segment></body></omm>
<omm id="CCSDS_OMM_VERS" version="2.0">
<header><CREATION_DATE/><ORIGINATOR/></header><body><segment><metadata><OBJECT_NAME>ORBCOMM FM31</OBJECT_NAME><OBJECT_ID>1999-065B</OBJECT_ID><CENTER_NAME>EARTH</CENTER_NAME><REF_FRAME>TEME</REF_FRAME><TIME_SYSTEM>UTC</TIME_SYSTEM><MEAN_ELEMENT_THEORY>SGP4</MEAN_ELEMENT_THEORY></metadata><data><meanElements><EPOCH>2024-12-24T01:12:07.322400</EPOCH><MEAN_MOTION>14.36519163</MEAN_MOTION><ECCENTRICITY>.0003627</ECCENTRICITY><INCLINATION>45.0211</INCLINATION><RA_OF_ASC_NODE>191.8324</RA_OF_ASC_NODE><ARG_OF_PERICENTER>224.9899</ARG_OF_PERICENTER><MEAN_ANOMALY>135.0655</MEAN_ANOMALY></meanElements><tleParameters><EPHEMERIS_TYPE>0</EPHEMERIS_TYPE><CLASSIFICATION_TYPE>U</CLASSIFICATION_TYPE><NORAD_CAT_ID>25981</NORAD_CAT_ID><ELEMENT_SET_NO>999</ELEMENT_SET_NO><REV_AT_EPOCH>30978</REV_AT_EPOCH><BSTAR>.66835E-3</BSTAR><MEAN_MOTION_DOT>.1839E-4</MEAN_MOTION_DOT><MEAN_MOTION_DDOT>0</MEAN_MOTION_DDOT></tleParameters></data></segment></body></omm>
<omm id="CCSDS_OMM_VERS" version="2.0">
<header><CREATION_DATE/><ORIGINATOR/></header><body><segment><metadata><OBJECT_NAME>ORBCOMM FM32</OBJECT_NAME><OBJECT_ID>1999-065C</OBJECT_ID><CENTER_NAME>EARTH</CENTER_NAME><REF_FRAME>TEME</REF_FRAME><TIME_SYSTEM>UTC</TIME_SYSTEM><MEAN_ELEMENT_THEORY>SGP4</MEAN_ELEMENT_THEORY></metadata><data><meanElements><EPOCH>2024-12-23T15:09:07.149600</EPOCH><MEAN_MOTION>14.35554455</MEAN_MOTION><ECCENTRICITY>.0005392</ECCENTRICITY><INCLINATION>45.0135</INCLINATION><RA_OF_ASC_NODE>209.2017</RA_OF_ASC_NODE><ARG_OF_PERICENTER>227.2707</ARG_OF_PERICENTER><MEAN_ANOMALY>132.7687</MEAN_ANOMALY></meanElements><tleParameters><EPHEMERIS_TYPE>0</EPHEMERIS_TYPE><CLASSIFICATION_TYPE>U</CLASSIFICATION_TYPE><NORAD_CAT_ID>25982</NORAD_CAT_ID><ELEMENT_SET_NO>999</ELEMENT_SET_NO><REV_AT_EPOCH>30936</REV_AT_EPOCH><BSTAR>.75975E-3</BSTAR><MEAN_MOTION_DOT>.2067E-4</MEAN_MOTION_DOT><MEAN_MOTION_DDOT>0</MEAN_MOTION_DDOT></tleParameters></data></segment></body></omm>

</ndm>
