ORBCOMM FM24            
1 25478U 98053D   24358.57496039  .00002499  00000+0  87882-3 0  9995
2 25478  45.0090  21.2526 0001492 325.4317  34.6434 14.37217387372453
ORBCOMM FM25            
1 25479U 98053E   24358.54376379  .00002843  00000+0  99352-3 0  9995
2 25479  45.0082  19.6549 0001919  58.4223 301.6812 14.37198640372462
ORBCOMM FM26            
1 25480U 98053F   24359.07296480  .00002463  00000+0  88088-3 0  9992
2 25480  45.0078  12.4226 0003574 108.5288 251.5948 14.36400746372565
ORBCOMM FM27            
1 25481U 98053G   24358.53336365  .00002814  00000+0  98367-3 0  9991
2 25481  45.0065  19.9532 0002297 284.4551  75.6041 14.37201424372395
ORBCOMM FM28            
1 25482U 98053H   24359.08612091  .00002933  00000+0  10173-2 0  9996
2 25482  45.0063 315.1505 0002230 136.1050 223.9976 14.37496907373320
ORBCOMM FM30            
1 25980U 99065A   24358.52567621  .00001614  00000+0  59215-3 0  9995
2 25980  45.0300 200.7552 0006324 202.4016 157.6556 14.36545565309189
ORBCOMM FM31            
1 25981U 99065B   24359.05008475  .00001839  00000+0  66835-3 0  9997
2 25981  45.0211 191.8324 0003627 224.9899 135.0655 14.36519163309780
ORBCOMM FM32            
1 25982U 99065C   24358.63133275  .00002067  00000+0  75975-3 0  9997
2 25982  45.0135 209.2017 0005392 227.2707 132.7687 14.35554455309369
